{"type": "FeatureCollection", "features": [{"type": "Feature", "properties": {"norad_id": 50032, "name": "COSMOS 1408 DEB", "group": "cosmos-1408-debris", "lat": 53.42633801171761, "lon": -133.08909911177184, "alt_km": 422.02377163010897, "timestamp": "2025-12-14T03:55:53.057969+00:00", "meta": {"OBJECT_NAME": "COSMOS 1408 DEB", "OBJECT_ID": "1982-092RU", "EPOCH": "2025-12-13T05:38:09.455424", "MEAN_MOTION": 15.45702895, "ECCENTRICITY": 0.00152894, "INCLINATION": 82.5643, "RA_OF_ASC_NODE": 58.0014, "ARG_OF_PERICENTER": 206.6488, "MEAN_ANOMALY": 153.3977, "EPHEMERIS_TYPE": 0, "CLASSIFICATION_TYPE": "U", "NORAD_CAT_ID": 50032, "ELEMENT_SET_NO": 999, "REV_AT_EPOCH": 22611, "BSTAR": 0.0001669379, "MEAN_MOTION_DOT": 8.133e-05, "MEAN_MOTION_DDOT": 0}, "tle": {"line1": "1 50032U 82092RU  25347.23483166  .00008133  00000+0  16694-3 0  9998", "line2": "2 50032  82.5643  58.0014 0015289 206.6488 153.3977 15.45702895226110"}}, "geometry": {"type": "Point", "coordinates": [-133.08909911177184, 53.42633801171761]}}, {"type": "Feature", "properties": {"norad_id": 50058, "name": "COSMOS 1408 DEB", "group": "cosmos-1408-debris", "lat": 61.216445044695845, "lon": 81.50971257369382, "alt_km": 360.1163680819509, "timestamp": "2025-12-14T03:55:53.057990+00:00", "meta": {"OBJECT_NAME": "COSMOS 1408 DEB", "OBJECT_ID": "1982-092SW", "EPOCH": "2025-12-13T06:10:19.981344", "MEAN_MOTION": 15.64148339, "ECCENTRICITY": 0.00162595, "INCLINATION": 82.6137, "RA_OF_ASC_NODE": 68.8001, "ARG_OF_PERICENTER": 96.5116, "MEAN_ANOMALY": 263.7995, "EPHEMERIS_TYPE": 0, "CLASSIFICATION_TYPE": "U", "NORAD_CAT_ID": 50058, "ELEMENT_SET_NO": 999, "REV_AT_EPOCH": 22812, "BSTAR": 0.00050124618, "MEAN_MOTION_DOT": 0.00048053, "MEAN_MOTION_DDOT": 0}, "tle": {"line1": "1 50058U 82092SW  25347.25717571  .00048053  00000+0  50125-3 0  9990", "line2": "2 50058  82.6137  68.8001 0016259  96.5116 263.7995 15.64148339228121"}}, "geometry": {"type": "Point", "coordinates": [81.50971257369382, 61.216445044695845]}}, {"type": "Feature", "properties": {"norad_id": 50404, "name": "COSMOS 1408 DEB", "group": "cosmos-1408-debris", "lat": -79.35372003549445, "lon": 166.7832731185098, "alt_km": 515.3707037196191, "timestamp": "2025-12-14T03:55:53.058004+00:00", "meta": {"OBJECT_NAME": "COSMOS 1408 DEB", "OBJECT_ID": "1982-092ADS", "EPOCH": "2025-12-13T01:20:10.686336", "MEAN_MOTION": 15.13857966, "ECCENTRICITY": 0.01714653, "INCLINATION": 82.2036, "RA_OF_ASC_NODE": 214.71, "ARG_OF_PERICENTER": 197.772, "MEAN_ANOMALY": 161.7471, "EPHEMERIS_TYPE": 0, "CLASSIFICATION_TYPE": "U", "NORAD_CAT_ID": 50404, "ELEMENT_SET_NO": 999, "REV_AT_EPOCH": 21198, "BSTAR": 0.00382664, "MEAN_MOTION_DOT": 0.00101014, "MEAN_MOTION_DDOT": 0}, "tle": {"line1": "1 50404U 82092ADS 25347.05567924  .00101014  00000+0  38266-2 0  9996", "line2": "2 50404  82.2036 214.7100 0171465 197.7720 161.7471 15.13857966211987"}}, "geometry": {"type": "Point", "coordinates": [166.7832731185098, -79.35372003549445]}}, {"type": "Feature", "properties": {"norad_id": 50621, "name": "COSMOS 1408 DEB", "group": "cosmos-1408-debris", "lat": 39.636074738723146, "lon": 78.9030610646669, "alt_km": 399.7369092582312, "timestamp": "2025-12-14T03:55:53.058015+00:00", "meta": {"OBJECT_NAME": "COSMOS 1408 DEB", "OBJECT_ID": "1982-092ALR", "EPOCH": "2025-12-13T06:09:41.487552", "MEAN_MOTION": 15.56702326, "ECCENTRICITY": 0.00289171, "INCLINATION": 82.5702, "RA_OF_ASC_NODE": 73.6418, "ARG_OF_PERICENTER": 150.5332, "MEAN_ANOMALY": 209.7561, "EPHEMERIS_TYPE": 0, "CLASSIFICATION_TYPE": "U", "NORAD_CAT_ID": 50621, "ELEMENT_SET_NO": 999, "REV_AT_EPOCH": 22258, "BSTAR": 0.00057463464, "MEAN_MOTION_DOT": 0.0004197, "MEAN_MOTION_DDOT": 0}, "tle": {"line1": "1 50621U 82092ALR 25347.25673018  .00041970  00000+0  57463-3 0  9996", "line2": "2 50621  82.5702  73.6418 0028917 150.5332 209.7561 15.56702326222581"}}, "geometry": {"type": "Point", "coordinates": [78.9030610646669, 39.636074738723146]}}]}